[{"OBJECT_NAME":"STARLINK-35062","OBJECT_ID":"2025-210X","EPOCH":"2026-03-09T22:32:02.136768","MEAN_MOTION":15.30208,"ECCENTRICITY":7.216e-5,"INCLINATION":53.1578,"RA_OF_ASC_NODE":305.6064,"ARG_OF_PERICENTER":90.7382,"MEAN_ANOMALY":269.3701,"EPHEMERIS_TYPE":0,"CLASSIFICATION_TYPE":"U","NORAD_CAT_ID":65643,"ELEMENT_SET_NO":999,"REV_AT_EPOCH":2777,"BSTAR":0.00082936397,"MEAN_MOTION_DOT":0.00024291,"MEAN_MOTION_DDOT":0},{"OBJECT_NAME":"CZ-2C R\/B","OBJECT_ID":"2024-218A","EPOCH":"2026-03-09T22:16:31.791072","MEAN_MOTION":15.22960743,"ECCENTRICITY":0.00453409,"INCLINATION":97.5416,"RA_OF_ASC_NODE":83.973,"ARG_OF_PERICENTER":359.5317,"MEAN_ANOMALY":0.5869,"EPHEMERIS_TYPE":0,"CLASSIFICATION_TYPE":"U","NORAD_CAT_ID":62078,"ELEMENT_SET_NO":999,"REV_AT_EPOCH":7134,"BSTAR":0.00039378379,"MEAN_MOTION_DOT":9.445e-5,"MEAN_MOTION_DDOT":0}]
